STARLINK-1470           
1 45772U 20038AU  26068.60892913  .00054678  00000+0  19687-2 0  9990
2 45772  53.0480 174.6971 0002444  12.8687 347.2373 15.28074860317065
STARLINK-35860          
1 66881U 25283D   26068.20170508  .00031095  00000+0  10574-2 0  9990
2 66881  53.1627  26.1336 0001027 104.7371 255.3743 15.30206831 15777
